COSMOS 2361 [-]         
1 25590U 98076A   22091.55271038  .00000062  00000+0  50378-4 0  9990
2 25590  82.9306 262.9859 0032680  63.4786 357.3002 13.73014097165686
COSMOS 2378 [-]         
1 26818U 01023A   22091.27994596  .00000039  00000+0  25281-4 0  9999
2 26818  82.9240 281.3805 0033456  12.0298 348.1649 13.73965665 43713
COSMOS 2389 [-]         
1 27436U 02026A   22091.51762541  .00000065  00000+0  51927-4 0  9995
2 27436  82.9518 226.8963 0045512 229.2467 201.2505 13.74970018995808
COSMOS 2398 [-]         
1 27818U 03023A   22091.34248134  .00000035  00000+0  21715-4 0  9994
2 27818  82.9524 188.3922 0029901 266.0793  93.6946 13.72204548942812
COSMOS 2407 [+]         
1 28380U 04028A   22091.36255293  .00000068  00000+0  54120-4 0  9993
2 28380  82.9605 133.5120 0037875 231.9413 127.8328 13.76107556888568
COSMOS 2414 [+]         
1 28521U 05002A   22091.74610548  .00000070  00000+0  45630-4 0  9992
2 28521  82.9481 126.2402 0041344  34.3819 326.0008 13.87649848870915
COSMOS 2429 [-]         
1 32052U 07038A   22091.81880624  .00000067  00000+0  54203-4 0  9991
2 32052  82.9774 258.7552 0037895 206.4534 153.4688 13.74956054730460
COSMOS 2454 [-]         
1 35635U 09039A   22091.76192819  .00000069  00000+0  43364-4 0  9998
2 35635  82.9527 112.7151 0019055 342.7306  17.3210 13.89679346644048
COSMOS 2463 [+]         
1 36519U 10017A   22091.61065591  .00000071  00000+0  61979-4 0  9993
2 36519  82.9574 299.2529 0037495  76.6041 336.4128 13.71469759597168